{
"type": "FeatureCollection",
"name": "cadastral_village_fmb",
"crs": { "type": "name", "properties": { "name": "urn:ogc:def:crs:OGC:1.3:CRS84" } },
"features": [
{ "type": "Feature", "properties": { "survey_no": "142/2A", "sub_div": "2A", "khata_no": "8842", "patta_no": "AP-PLN-1422A", "pattadar": "V. R. Krishna Rao", "relation": "S/o Venkata Subbaiah", "land_class": "Dry Land (Metta / Orchard)", "land_use": "Agriculture (Horticulture/Citrus)", "village": "Venkatapuram", "mandal": "Narasaraopet", "district": "Palnadu", "state": "Andhra Pradesh", "area_cents": 106.0, "area_acres": 1.06, "market_val": "₹ 42,40,000", "north_bnd": "12m Panchayat Road & Sy. No. 141", "south_bnd": "Sy. No. 142/1 (B. Ramaiah Land)", "east_bnd": "Irrigation Ayacut Canal", "west_bnd": "Sy. No. 143 (Smt. Lakshmi Devi Plot)" }, "geometry": { "type": "Polygon", "coordinates": [ [ [ 78.1, 16.5 ], [ 78.103, 16.5 ], [ 78.103, 16.5035 ], [ 78.1004, 16.5038 ], [ 78.1, 16.502 ], [ 78.1, 16.5 ] ] ] } },
{ "type": "Feature", "properties": { "survey_no": "142/1", "sub_div": "1", "khata_no": "6410", "patta_no": "AP-PLN-1421", "pattadar": "B. Ramaiah", "relation": "S/o Kotayya", "land_class": "Wet Land (Magani / Double Crop)", "land_use": "Agriculture (Paddy / Rice)", "village": "Venkatapuram", "mandal": "Narasaraopet", "district": "Palnadu", "state": "Andhra Pradesh", "area_cents": 125.0, "area_acres": 1.25, "market_val": "₹ 56,25,000", "north_bnd": "Sy. No. 143", "south_bnd": "Village Boundary & Drain", "east_bnd": "Irrigation Canal", "west_bnd": "Sy. No. 142/2A" }, "geometry": { "type": "Polygon", "coordinates": [ [ [ 78.103, 16.5 ], [ 78.1065, 16.5002 ], [ 78.1065, 16.5035 ], [ 78.103, 16.5035 ], [ 78.103, 16.5 ] ] ] } },
{ "type": "Feature", "properties": { "survey_no": "142/2B", "sub_div": "2B", "khata_no": "9201", "patta_no": "AP-PLN-1422B", "pattadar": "K. Venkataswamy", "relation": "S/o Narayana", "land_class": "Dry Land (Metta)", "land_use": "Agriculture (Cotton / Chilli)", "village": "Venkatapuram", "mandal": "Narasaraopet", "district": "Palnadu", "state": "Andhra Pradesh", "area_cents": 98.0, "area_acres": 0.98, "market_val": "₹ 39,20,000", "north_bnd": "Sy. No. 144", "south_bnd": "Sy. No. 142/2A", "east_bnd": "Sy. No. 143", "west_bnd": "Sy. No. 140 (Cart Track)" }, "geometry": { "type": "Polygon", "coordinates": [ [ [ 78.1004, 16.5038 ], [ 78.103, 16.5035 ], [ 78.103, 16.507 ], [ 78.1008, 16.5072 ], [ 78.1004, 16.5038 ] ] ] } },
{ "type": "Feature", "properties": { "survey_no": "143", "sub_div": "0", "khata_no": "5512", "patta_no": "AP-PLN-143", "pattadar": "Smt. Lakshmi Devi", "relation": "W/o Appa Rao", "land_class": "Converted Non-Agriculture", "land_use": "Commercial / Farmhouse & Solar Pump", "village": "Venkatapuram", "mandal": "Narasaraopet", "district": "Palnadu", "state": "Andhra Pradesh", "area_cents": 115.0, "area_acres": 1.15, "market_val": "₹ 69,00,000", "north_bnd": "Sy. No. 141 (Panchayat Road)", "south_bnd": "Sy. No. 142/1", "east_bnd": "Irrigation Canal", "west_bnd": "Sy. No. 142/2B" }, "geometry": { "type": "Polygon", "coordinates": [ [ [ 78.103, 16.5035 ], [ 78.1065, 16.5035 ], [ 78.1062, 16.507 ], [ 78.103, 16.507 ], [ 78.103, 16.5035 ] ] ] } },
{ "type": "Feature", "properties": { "survey_no": "144", "sub_div": "0", "khata_no": "7730", "patta_no": "AP-PLN-144", "pattadar": "G. Srinivas", "relation": "S/o Ranga Rao", "land_class": "Dry Land (Metta)", "land_use": "Agriculture (Maize / Pulses)", "village": "Venkatapuram", "mandal": "Narasaraopet", "district": "Palnadu", "state": "Andhra Pradesh", "area_cents": 85.0, "area_acres": 0.85, "market_val": "₹ 34,00,000", "north_bnd": "Sy. No. 145", "south_bnd": "Sy. No. 142/2B", "east_bnd": "Sy. No. 141", "west_bnd": "Sy. No. 139" }, "geometry": { "type": "Polygon", "coordinates": [ [ [ 78.1008, 16.5072 ], [ 78.103, 16.507 ], [ 78.103, 16.5098 ], [ 78.1005, 16.5098 ], [ 78.1008, 16.5072 ] ] ] } },
{ "type": "Feature", "properties": { "survey_no": "141", "sub_div": "0", "khata_no": "GOVT-101", "patta_no": "AP-GOVT-PORAMBOKE", "pattadar": "Gram Panchayat & Irrigation Dept", "relation": "Government Land (Poramboke)", "land_class": "Government Public Utility", "land_use": "Panchayat Main Road & Irrigation Channel", "village": "Venkatapuram", "mandal": "Narasaraopet", "district": "Palnadu", "state": "Andhra Pradesh", "area_cents": 120.0, "area_acres": 1.2, "market_val": "Government Public Asset", "north_bnd": "Sy. No. 146", "south_bnd": "Sy. No. 143 & 142", "east_bnd": "Ayacut Canal Bund", "west_bnd": "Sy. No. 144" }, "geometry": { "type": "Polygon", "coordinates": [ [ [ 78.103, 16.507 ], [ 78.1062, 16.507 ], [ 78.1065, 16.5098 ], [ 78.103, 16.5098 ], [ 78.103, 16.507 ] ] ] } },
{ "type": "Feature", "properties": { "survey_no": "145", "sub_div": "0", "khata_no": "3310", "patta_no": "AP-PLN-145", "pattadar": "Ch. Venkata Reddy", "relation": "S/o Sambasiva Rao", "land_class": "Dry Land (Metta)", "land_use": "Agriculture (Tobacco / Cotton)", "village": "Venkatapuram", "mandal": "Narasaraopet", "district": "Palnadu", "state": "Andhra Pradesh", "area_cents": 92.0, "area_acres": 0.92, "market_val": "₹ 36,80,000", "north_bnd": "Hillock / Forest Border", "south_bnd": "Sy. No. 144", "east_bnd": "Sy. No. 146", "west_bnd": "Sy. No. 138" }, "geometry": { "type": "Polygon", "coordinates": [ [ [ 78.1005, 16.5098 ], [ 78.103, 16.5098 ], [ 78.103, 16.5125 ], [ 78.1002, 16.5125 ], [ 78.1005, 16.5098 ] ] ] } },
{ "type": "Feature", "properties": { "survey_no": "146", "sub_div": "0", "khata_no": "4421", "patta_no": "AP-PLN-146", "pattadar": "M. Satyanarayana", "relation": "S/o Subbaiah", "land_class": "Wet Land (Magani)", "land_use": "Agriculture (Paddy / Banana Plantation)", "village": "Venkatapuram", "mandal": "Narasaraopet", "district": "Palnadu", "state": "Andhra Pradesh", "area_cents": 110.0, "area_acres": 1.1, "market_val": "₹ 49,50,000", "north_bnd": "Village Boundary", "south_bnd": "Sy. No. 141", "east_bnd": "Major Irrigation Distributary", "west_bnd": "Sy. No. 145" }, "geometry": { "type": "Polygon", "coordinates": [ [ [ 78.103, 16.5098 ], [ 78.1065, 16.5098 ], [ 78.1065, 16.5125 ], [ 78.103, 16.5125 ], [ 78.103, 16.5098 ] ] ] } }
]
}
